{"spkid": "50799700", "covariance": {"labels": ["e", "q", "tp", "node", "peri", "i"], "data": [["4.033491943830317E-13", "-4.40806690065685E-13", "-7.044198114927549E-12", "1.632286566781767E-12", "3.887375880134767E-11", "1.551029947906015E-11"], ["-4.40806690065685E-13", "4.817439242730383E-13", "7.661438596660048E-12", "-1.782883823084376E-12", "-4.251696085654078E-11", "-1.697660831975761E-11"], ["-7.044198114927549E-12", "7.661438596660048E-12", "2.574385014036037E-9", "-8.560391723989149E-11", "1.48531496767974E-9", "1.338288121141903E-9"], ["1.632286566781767E-12", "-1.782883823084376E-12", "-8.560391723989149E-11", "3.700560896567506E-11", "7.975126296623442E-11", "3.345640598232848E-11"], ["3.887375880134767E-11", "-4.251696085654078E-11", "1.48531496767974E-9", "7.975126296623442E-11", "5.68574893486689E-9", "2.909928735236338E-9"], ["1.551029947906015E-11", "-1.697660831975761E-11", "1.338288121141903E-9", "3.345640598232848E-11", "2.909928735236338E-9", "2.011926202758019E-9"]], "elements": [{"value": ".2126453279194909", "title": "eccentricity", "units": null, "sigma": 6.35097783323979e-07, "name": "e", "label": "e"}, {"label": "q", "units": "au", "value": ".8601896746079478", "title": "perihelion distance", "name": "q", "sigma": 6.9407775088461e-07}, {"label": "tp", "title": "time of perihelion passage", "value": "2460345.903410272982", "units": "TDB", "sigma": 5.07383978268533e-05, "name": "tp"}, {"label": "node", "name": "om", "sigma": 6.08322356696473e-06, "title": "longitude of the ascending node", "value": "148.5655266180716", "units": "deg"}, {"sigma": 7.54039053024901e-05, "name": "w", "units": "deg", "title": "argument of perihelion", "value": "104.3771037951049", "label": "peri"}, {"units": "deg", "title": "inclination", "value": "19.58071901749814", "sigma": 4.48545003623719e-05, "name": "i", "label": "i"}], "epoch": "2460151.5"}, "elements": [{"label": "e", "sigma": "6.3444E-7", "name": "e", "title": "eccentricity", "value": ".212704730169497", "units": null}, {"label": "a", "sigma": "1.2683E-9", "name": "a", "units": "au", "title": "semi-major axis", "value": "1.092501254914684"}, {"label": "q", "title": "perihelion distance", "value": ".8601210702782193", "units": "au", "name": "q", "sigma": "6.9336E-7"}, {"label": "i", "units": "deg", "title": "inclination; angle with respect to x-y ecliptic plane", "value": "19.57792157411752", "sigma": "4.488E-5", "name": "i"}, {"label": "node", "value": "148.5385155290364", "title": "longitude of the ascending node", "units": "deg", "name": "om", "sigma": "6.0887E-6"}, {"title": "argument of perihelion", "value": "104.4440078086957", "units": "deg", "name": "w", "sigma": "7.5183E-5", "label": "peri"}, {"label": "M", "units": "deg", "title": "mean anomaly", "value": "17.56682813218015", "name": "ma", "sigma": "4.3202E-5"}, {"label": "tp", "name": "tp", "sigma": "5.0064E-5", "title": "time of perihelion passage", "value": "2461180.147292311354", "units": "TDB"}, {"name": "per", "sigma": "7.2632E-7", "units": "d", "title": "sidereal orbital period", "value": "417.0915040997253", "label": "period"}, {"label": "n", "units": "deg/d", "value": ".8631199544019604", "title": "mean motion", "name": "n", "sigma": "1.503E-9"}, {"sigma": "1.5381E-9", "name": "ad", "units": "au", "title": "aphelion distance", "value": "1.324881439551149", "label": "Q"}], "epoch": "2461200.5"}